{
    "CCSDS_OMM_VERS": "3.0",
    "COMMENT": "GENERATED VIA SPACE-TRACK.ORG API",
    "CREATION_DATE": "2025-05-23T14:56:28",
    "ORIGINATOR": "18 SPCS",
    "OBJECT_NAME": "COSMOS 2477 (GLONASS)",
    "OBJECT_ID": "2011-064B",
    "CENTER_NAME": "EARTH",
    "REF_FRAME": "TEME",
    "TIME_SYSTEM": "UTC",
    "MEAN_ELEMENT_THEORY": "SGP4",
    "EPOCH": "2025-05-23T11:43:48.608256",
    "MEAN_MOTION": "2.13102952",
    "ECCENTRICITY": "0.00204590",
    "INCLINATION": "65.0584",
    "RA_OF_ASC_NODE": "86.1255",
    "ARG_OF_PERICENTER": "242.6398",
    "MEAN_ANOMALY": "298.4748",
    "EPHEMERIS_TYPE": "0",
    "CLASSIFICATION_TYPE": "U",
    "NORAD_CAT_ID": "37868",
    "ELEMENT_SET_NO": "999",
    "REV_AT_EPOCH": "10544",
    "BSTAR": "0.00000000000000",
    "MEAN_MOTION_DOT": "0.00000001",
    "MEAN_MOTION_DDOT": "0.0000000000000",
    "SEMIMAJOR_AXIS": "25507.948",
    "PERIOD": "675.730",
    "APOAPSIS": "19182.000",
    "PERIAPSIS": "19077.627",
    "OBJECT_TYPE": "PAYLOAD",
    "RCS_SIZE": "LARGE",
    "COUNTRY_CODE": "CIS",
    "LAUNCH_DATE": "2011-11-04",
    "SITE": "TTMTR",
    "DECAY_DATE": null,
    "FILE": "4737099",
    "GP_ID": "288176574",
    "TLE_LINE0": "0 COSMOS 2477 (GLONASS)",
    "TLE_LINE1": "1 37868U 11064B   25143.48875704  .00000001  00000-0  00000+0 0  9992",
    "TLE_LINE2": "2 37868  65.0584  86.1255 0020459 242.6398 298.4748  2.13102952105444"
}